STARLINK-5606           
1 55767U 23028AC  23078.91667824 -.00899895  00000+0 -72714-2 0  9990
2 55767  70.0001 109.7911 0003496 266.3577 330.0749 15.73114889  3204
STARLINK-5583           
1 55768U 23028AD  23079.25001157 -.00931210  00000+0 -77496-2 0  9990
2 55768  69.9920 108.8391 0003702 268.0153  57.3821 15.72513244  3255
STARLINK-5584           
1 55769U 23028AE  23078.91667824 -.00899897  00000+0 -72562-2 0  9995
2 55769  70.0001 109.7879 0003497 267.1093 332.0130 15.73163595  3206
STARLINK-5557           
1 55770U 23028AF  23078.91667824 -.00899909  00000+0 -72532-2 0  9998
2 55770  70.0001 109.7871 0003496 267.6429 332.0155 15.73173582  1300
STARLINK-5591           
1 55771U 23028AG  23078.91667824 -.00899935  00000+0 -72443-2 0  9999
2 55771  70.0002 109.7853 0003498 267.1468 334.1226 15.73202853  1308
STARLINK-5835           
1 55772U 23028AH  23078.91667824 -.00899908  00000+0 -72319-2 0  9992
2 55772  70.0001 109.7828 0003506 272.1880 331.2269 15.73241775  3206
STARLINK-5833           
1 55773U 23028AJ  23078.91667824 -.00899917  00000+0 -72471-2 0  9992
2 55773  70.0001 109.7860 0003511 265.0304 335.7015 15.73193190  3206
STARLINK-5812           
1 55774U 23028AK  23078.91667824 -.00899937  00000+0 -72414-2 0  9992
2 55774  70.0002 109.7845 0003509 265.3673 336.4418 15.73212083  3208
STARLINK-5809           
1 55775U 23028AL  23078.91667824 -.00899957  00000+0 -72351-2 0  9995
2 55775  70.0002 109.7833 0003540 262.2847 340.5918 15.73232490  1304
STARLINK-5810           
1 55776U 23028AM  23079.25001157 -.00933966  00000+0 -77291-2 0  9992
2 55776  69.9917 108.8300 0003704 269.3780  63.6892 15.72652056  3266
STARLINK-5814           
1 55777U 23028AN  23078.91667824 -.00899898  00000+0 -72290-2 0  9993
2 55777  70.0001 109.7821 0003506 267.1483 336.8071 15.73250831  1301
STARLINK-5816           
1 55778U 23028AP  23079.25001157 -.00929832  00000+0 -77016-2 0  9996
2 55778  69.9915 108.8317 0003741 268.8535  62.5783 15.72619405  3265
STARLINK-5817           
1 55779U 23028AQ  23078.91667824 -.00760722  00000+0 -49758-2 0  9991
2 55779  70.0001 109.6612 0003620 270.1919  75.4788 15.77556602  3217
STARLINK-5819           
1 55780U 23028AR  23078.91667824 -.00899933  00000+0 -72230-2 0  9991
2 55780  70.0002 109.7808 0003505 267.2657 337.7564 15.73271118  1302
STARLINK-5820           
1 55781U 23028AS  23078.91667824 -.00899924  00000+0 -72198-2 0  9995
2 55781  70.0001 109.7802 0003505 267.8031 337.7525 15.73281178  3203
STARLINK-5826           
1 55782U 23028AT  23078.91667824 -.00899947  00000+0 -72137-2 0  9994
2 55782  70.0001 109.7788 0003507 267.7969 338.8245 15.73301425  3207
STARLINK-5825           
1 55783U 23028AU  23079.25001157 -.00926217  00000+0 -76517-2 0  9991
2 55783  69.9924 108.8288 0003822 269.2158  64.9412 15.72668883  3263
STARLINK-5797           
1 55784U 23028AV  23079.25001157 -.00940467  00000+0 -77681-2 0  9998
2 55784  69.9914 108.8255 0003689 269.9711  66.3743 15.72715242  3265
STARLINK-5818           
1 55785U 23028AW  23078.91667824 -.00899960  00000+0 -72079-2 0  9997
2 55785  70.0001 109.7776 0003518 265.7165 341.9783 15.73320331  3204
STARLINK-5823           
1 55786U 23028AX  23079.25001157 -.00926941  00000+0 -76425-2 0  9996
2 55786  69.9908 108.8255 0003825 266.5356  70.3558 15.72717187  3258
STARLINK-5811           
1 55787U 23028AY  23078.91667824 -.00899974  00000+0 -72049-2 0  9991
2 55787  70.0001 109.7770 0003509 267.7981 340.4286 15.73330514  3204
STARLINK-5804           
1 55788U 23028AZ  23078.91667824 -.00899983  00000+0 -72021-2 0  9992
2 55788  70.0001 109.7763 0003507 269.5946 339.1692 15.73339840  1302
STARLINK-5815           
1 55789U 23028BA  23078.91667824 -.00900013  00000+0 -71882-2 0  9994
2 55789  70.0002 109.7732 0003515 267.1430 344.3102 15.73385432  1303
STARLINK-5813           
1 55790U 23028BB  23078.91667824 -.00900002  00000+0 -71912-2 0  9998
2 55790  70.0002 109.7737 0003531 264.5411 346.3815 15.73375218  1302
STARLINK-5807           
1 55791U 23028BC  23078.91667824 -.00899996  00000+0 -71937-2 0  9995
2 55791  70.0001 109.7745 0003527 264.8784 345.5004 15.73367053  1301
ONEWEB-0530             
1 55796U 23029A   23078.91667824 -.00046231  00000+0 -46732-2 0  9992
2 55796  86.5129 194.8717 0010110 173.1387 235.3844 14.91346866  1306
ONEWEB-0534             
1 55797U 23029B   23078.91667824 -.00046269  00000+0 -46840-2 0  9994
2 55797  86.5083 194.8651 0009911 173.8736 232.6000 14.91289665  1302
ONEWEB-0556             
1 55798U 23029C   23078.91667824 -.00046350  00000+0 -46760-2 0  9997
2 55798  86.5120 194.8697 0010416 171.8602 239.5286 14.91424351  1302
ONEWEB-0562             
1 55799U 23029D   23078.91667824 -.00046327  00000+0 -47030-2 0  9993
2 55799  86.5085 194.8666 0009433 174.7924 227.7771 14.91181803  1305
ONEWEB-0563             
1 55800U 23029E   23078.91667824 -.00046127  00000+0 -46721-2 0  9990
2 55800  86.5130 194.8729 0009628 174.1535 231.5213 14.91270087  1304
ONEWEB-0564             
1 55801U 23029F   23078.91667824 -.00046265  00000+0 -46702-2 0  9993
2 55801  86.5089 194.8658 0010326 172.3680 238.1346 14.91400935  1304
ONEWEB-0638             
1 55802U 23029G   23078.91667824 -.00047397  00000+0 -47112-2 0  9997
2 55802  86.5115 194.8667 0012744 176.0608 256.0429 14.92000270  1302
ONEWEB-0639             
1 55803U 23029H   23078.91667824 -.00046487  00000+0 -47320-2 0  9998
2 55803  86.5092 194.8688 0009110 178.8289 220.0564 14.91076303  1308
ONEWEB-0640             
1 55804U 23029J   23078.91667824 -.00047435  00000+0 -46762-2 0  9992
2 55804  86.5101 194.8623 0013293 182.8274 261.0694 14.92323719  1301
ONEWEB-0641             
1 55805U 23029K   23078.91667824 -.00046692  00000+0 -46743-2 0  9996
2 55805  86.5098 194.8635 0011918 173.4624 248.6157 14.91720735  1300
ONEWEB-0642             
1 55806U 23029L   23078.91667824 -.00046204  00000+0 -46886-2 0  9994
2 55806  86.5128 194.8731 0009522 174.4628 228.7468 14.91196787  1303
ONEWEB-0643             
1 55807U 23029M   23078.91667824 -.00046870  00000+0 -46641-2 0  9993
2 55807  86.5099 194.8616 0012843 176.2043 254.3344 14.91951858  1300
ONEWEB-0644             
1 55808U 23029N   23078.91667824 -.00046386  00000+0 -47172-2 0  9996
2 55808  86.5123 194.8726 0009203 175.7214 224.4851 14.91114218  1303
ONEWEB-0645             
1 55809U 23029P   23078.91667824 -.00046764  00000+0 -46779-2 0  9999
2 55809  86.5114 194.8686 0012053 173.3933 249.8606 14.91750535  1305
ONEWEB-0646             
1 55810U 23029Q   23079.31165955  .00006463  00000+0  64879-3 0  9996
2 55810  86.5128 194.6978 0009356 174.3637 185.7698 14.91119565  2254
ONEWEB-0648             
1 55811U 23029R   23078.91667824 -.00047193  00000+0 -46845-2 0  9993
2 55811  86.5105 194.8634 0013199 176.3625 257.4689 14.92049110  1301
ONEWEB-0649             
1 55812U 23029S   23079.04207778  .00002527  00000+0  25091-3 0  9998
2 55812  86.5078 194.8096 0010013 173.8951 186.2400 14.91293076  2211
ONEWEB-0650             
1 55813U 23029T   23078.91667824 -.00046630  00000+0 -46741-2 0  9995
2 55813  86.5107 194.8666 0011680 173.1353 247.1221 14.91671372  1304
ONEWEB-0652             
1 55814U 23029U   23078.91667824 -.00046768  00000+0 -46635-2 0  9990
2 55814  86.5101 194.8618 0012546 175.2822 252.3512 14.91871938  1303
ONEWEB-0653             
1 55815U 23029V   23078.91667824 -.00047121  00000+0 -47030-2 0  9995
2 55815  86.5112 194.8680 0012366 174.4822 251.8846 14.91839356  1308
ONEWEB-0654             
1 55816U 23029W   23078.91667824 -.00047407  00000+0 -46710-2 0  9997
2 55816  86.5115 194.8612 0013933 182.1245 262.1200 14.92337269  1309
ONEWEB-0656             
1 55817U 23029X   23078.91667824 -.00048410  00000+0 -47361-2 0  9996
2 55817  86.5098 194.8602 0014195 187.0797 267.4161 14.92622265  1303
ONEWEB-0657             
1 55818U 23029Y   23078.91667824 -.00046632  00000+0 -46573-2 0  9995
2 55818  86.5100 194.8622 0012265 174.1080 251.1398 14.91811533  1307
ONEWEB-0658             
1 55819U 23029Z   23078.91667824 -.00046419  00000+0 -46394-2 0  9990
2 55819  86.5099 194.8625 0012162 173.8036 250.4826 14.91782298  1304
ONEWEB-0660             
1 55820U 23029AA  23078.91667824 -.00047091  00000+0 -46902-2 0  9994
2 55820  86.5113 194.8677 0012636 176.3973 252.7529 14.91919691  1308
ONEWEB-0661             
1 55821U 23029AB  23078.91667824 -.00047421  00000+0 -46640-2 0  9991
2 55821  86.5093 194.8613 0014022 183.0977 263.5942 14.92407746  1309
ONEWEB-0662             
1 55822U 23029AC  23078.91667824 -.00046871  00000+0 -46673-2 0  9996
2 55822  86.5115 194.8676 0012742 175.8887 253.6803 14.91926056  1305
ONEWEB-0663             
1 55823U 23029AD  23078.91667824 -.00047386  00000+0 -46439-2 0  9999
2 55823  86.5120 194.8602 0014078 186.0547 265.8931 14.92549306  1309
ONEWEB-0664             
1 55824U 23029AE  23078.91667824 -.00047542  00000+0 -46734-2 0  9992
2 55824  86.5090 194.8606 0014066 183.9857 263.6565 14.92429494  1301
ONEWEB-0665             
1 55825U 23029AF  23078.91667824 -.00047650  00000+0 -47012-2 0  9993
2 55825  86.5106 194.8622 0013795 181.2140 261.1503 14.92287309  1304
ONEWEB-0666             
1 55826U 23029AG  23078.91667824 -.00047632  00000+0 -46736-2 0  9996
2 55826  86.5124 194.8610 0014045 185.1270 265.1490 14.92503761  1300
ONEWEB-0667             
1 55827U 23029AH  23078.91667824 -.00047925  00000+0 -46830-2 0  9997
2 55827  86.5107 194.8594 0014319 187.7318 268.3080 14.92666092  1305
ONEWEB-0669             
1 55828U 23029AJ  23078.91667824 -.00047758  00000+0 -46767-2 0  9991
2 55828  86.5097 194.8603 0014122 186.5876 266.4914 14.92582084  1306
ONEWEB-0670             
1 55829U 23029AK  23078.91667824 -.00047853  00000+0 -47102-2 0  9992
2 55829  86.5117 194.8612 0013976 182.8216 262.9650 14.92379254  1304
